{
 "generated_at": "2026-06-20T08:22:11Z",
 "sources": [
  {
   "name": "CelesTrak",
   "url": "https://celestrak.org/NORAD/elements/",
   "license": "frei verfügbar; Attribution. Ursprünglich USSPACECOM/Space-Track."
  },
  {
   "name": "GCAT (J. McDowell, planet4589.org)",
   "url": "https://planet4589.org/space/gcat/",
   "license": "CC-BY 4.0"
  }
 ],
 "satellites": [
  {
   "norad": 39766,
   "name": "ALOS-2",
   "intl": "2014-029A",
   "group": "resource",
   "gcat": {
    "class": "C",
    "category": "IMG",
    "owner": "JAXA",
    "state": "J"
   },
   "omm": {
    "OBJECT_NAME": "ALOS-2",
    "OBJECT_ID": "2014-029A",
    "EPOCH": "2026-06-19T20:16:03.230976",
    "MEAN_MOTION": 14.79476609,
    "ECCENTRICITY": 0.0001677,
    "INCLINATION": 97.9222,
    "RA_OF_ASC_NODE": 267.9701,
    "ARG_OF_PERICENTER": 90.9592,
    "MEAN_ANOMALY": 269.1812,
    "EPHEMERIS_TYPE": 0,
    "CLASSIFICATION_TYPE": "U",
    "NORAD_CAT_ID": 39766,
    "ELEMENT_SET_NO": 999,
    "REV_AT_EPOCH": 65197,
    "BSTAR": 0.00018236,
    "MEAN_MOTION_DOT": 0.00001311,
    "MEAN_MOTION_DDOT": 0
   }
  },
  {
   "norad": 60182,
   "name": "ALOS-4 (DAICHI-4)",
   "intl": "2024-123A",
   "group": "resource",
   "gcat": {
    "class": "C",
    "category": "IMG",
    "owner": "JAXA",
    "state": "J"
   },
   "omm": {
    "OBJECT_NAME": "ALOS-4 (DAICHI-4)",
    "OBJECT_ID": "2024-123A",
    "EPOCH": "2026-06-19T19:06:31.902912",
    "MEAN_MOTION": 14.79472749,
    "ECCENTRICITY": 0.0001624,
    "INCLINATION": 97.9248,
    "RA_OF_ASC_NODE": 267.9336,
    "ARG_OF_PERICENTER": 96.9985,
    "MEAN_ANOMALY": 263.1411,
    "EPHEMERIS_TYPE": 0,
    "CLASSIFICATION_TYPE": "U",
    "NORAD_CAT_ID": 60182,
    "ELEMENT_SET_NO": 999,
    "REV_AT_EPOCH": 10626,
    "BSTAR": 0.00015205,
    "MEAN_MOTION_DOT": 0.00001084,
    "MEAN_MOTION_DDOT": 0
   }
  },
  {
   "norad": 41785,
   "name": "ALSAT-1B",
   "intl": "2016-059C",
   "group": "resource",
   "gcat": {
    "class": "C",
    "category": "IMG",
    "owner": "ASAL",
    "state": "DZ"
   },
   "omm": {
    "OBJECT_NAME": "ALSAT-1B",
    "OBJECT_ID": "2016-059C",
    "EPOCH": "2026-06-19T19:44:48.869376",
    "MEAN_MOTION": 14.72276135,
    "ECCENTRICITY": 0.0008297,
    "INCLINATION": 97.7746,
    "RA_OF_ASC_NODE": 179.473,
    "ARG_OF_PERICENTER": 210.3942,
    "MEAN_ANOMALY": 149.6786,
    "EPHEMERIS_TYPE": 0,
    "CLASSIFICATION_TYPE": "U",
    "NORAD_CAT_ID": 41785,
    "ELEMENT_SET_NO": 999,
    "REV_AT_EPOCH": 52096,
    "BSTAR": 0.000036286,
    "MEAN_MOTION_DOT": 0.00000182,
    "MEAN_MOTION_DDOT": 0
   }
  },
  {
   "norad": 27424,
   "name": "AQUA",
   "intl": "2002-022A",
   "group": "resource",
   "gcat": {
    "class": "C",
    "category": "IMG",
    "owner": "GSFC",
    "state": "US"
   },
   "omm": {
    "OBJECT_NAME": "AQUA",
    "OBJECT_ID": "2002-022A",
    "EPOCH": "2026-06-19T20:29:41.681760",
    "MEAN_MOTION": 14.62161415,
    "ECCENTRICITY": 0.0001,
    "INCLINATION": 98.4277,
    "RA_OF_ASC_NODE": 140.19,
    "ARG_OF_PERICENTER": 54.7538,
    "MEAN_ANOMALY": 335.1578,
    "EPHEMERIS_TYPE": 0,
    "CLASSIFICATION_TYPE": "U",
    "NORAD_CAT_ID": 27424,
    "ELEMENT_SET_NO": 999,
    "REV_AT_EPOCH": 28366,
    "BSTAR": 0.00012222,
    "MEAN_MOTION_DOT": 0.00000565,
    "MEAN_MOTION_DDOT": 0
   }
  },
  {
   "norad": 29268,
   "name": "ARIRANG-2 (KOMPSAT-2)",
   "intl": "2006-031A",
   "group": "resource",
   "gcat": {
    "class": "C",
    "category": "IMG",
    "owner": "KARI",
    "state": "KR"
   },
   "omm": {
    "OBJECT_NAME": "ARIRANG-2 (KOMPSAT-2)",
    "OBJECT_ID": "2006-031A",
    "EPOCH": "2026-06-19T19:58:48.192672",
    "MEAN_MOTION": 14.64661564,
    "ECCENTRICITY": 0.0015883,
    "INCLINATION": 97.8306,
    "RA_OF_ASC_NODE": 355.1507,
    "ARG_OF_PERICENTER": 67.0907,
    "MEAN_ANOMALY": 56.9967,
    "EPHEMERIS_TYPE": 0,
    "CLASSIFICATION_TYPE": "U",
    "NORAD_CAT_ID": 29268,
    "ELEMENT_SET_NO": 999,
    "REV_AT_EPOCH": 6186,
    "BSTAR": 0.000059373,
    "MEAN_MOTION_DOT": 0.00000271,
    "MEAN_MOTION_DDOT": 0
   }
  },
  {
   "norad": 38338,
   "name": "ARIRANG-3 (KOMPSAT-3)",
   "intl": "2012-025B",
   "group": "resource",
   "gcat": {
    "class": "C",
    "category": "IMG",
    "owner": "KARI",
    "state": "KR"
   },
   "omm": {
    "OBJECT_NAME": "ARIRANG-3 (KOMPSAT-3)",
    "OBJECT_ID": "2012-025B",
    "EPOCH": "2026-06-19T20:07:14.581344",
    "MEAN_MOTION": 14.62208082,
    "ECCENTRICITY": 0.0006743,
    "INCLINATION": 98.1172,
    "RA_OF_ASC_NODE": 128.2525,
    "ARG_OF_PERICENTER": 102.7402,
    "MEAN_ANOMALY": 257.4554,
    "EPHEMERIS_TYPE": 0,
    "CLASSIFICATION_TYPE": "U",
    "NORAD_CAT_ID": 38338,
    "ELEMENT_SET_NO": 999,
    "REV_AT_EPOCH": 75173,
    "BSTAR": 0.000073767,
    "MEAN_MOTION_DOT": 0.00000325,
    "MEAN_MOTION_DDOT": 0
   }
  },
  {
   "norad": 39227,
   "name": "ARIRANG-5 (KOMPSAT-5)",
   "intl": "2013-042A",
   "group": "resource",
   "gcat": {
    "class": "C",
    "category": "IMG-R",
    "owner": "KARI",
    "state": "KR"
   },
   "omm": {
    "OBJECT_NAME": "ARIRANG-5 (KOMPSAT-5)",
    "OBJECT_ID": "2013-042A",
    "EPOCH": "2026-06-19T19:50:07.238688",
    "MEAN_MOTION": 15.04495283,
    "ECCENTRICITY": 0.0005432,
    "INCLINATION": 97.6201,
    "RA_OF_ASC_NODE": 357.4899,
    "ARG_OF_PERICENTER": 114.3542,
    "MEAN_ANOMALY": 245.8251,
    "EPHEMERIS_TYPE": 0,
    "CLASSIFICATION_TYPE": "U",
    "NORAD_CAT_ID": 39227,
    "ELEMENT_SET_NO": 999,
    "REV_AT_EPOCH": 70425,
    "BSTAR": 0.000040624,
    "MEAN_MOTION_DOT": 0.00000508,
    "MEAN_MOTION_DDOT": 0
   }
  },
  {
   "norad": 47719,
   "name": "ARKTIKA-M 1",
   "intl": "2021-016A",
   "group": "weather",
   "gcat": {
    "class": "C",
    "category": "MET",
    "owner": "ROSK",
    "state": "RU"
   },
   "omm": {
    "OBJECT_NAME": "ARKTIKA-M 1",
    "OBJECT_ID": "2021-016A",
    "EPOCH": "2026-06-17T11:46:36.471360",
    "MEAN_MOTION": 2.00622504,
    "ECCENTRICITY": 0.72885287,
    "INCLINATION": 63.2922,
    "RA_OF_ASC_NODE": 57.5948,
    "ARG_OF_PERICENTER": 269.942,
    "MEAN_ANOMALY": 14.6012,
    "EPHEMERIS_TYPE": 0,
    "CLASSIFICATION_TYPE": "U",
    "NORAD_CAT_ID": 47719,
    "ELEMENT_SET_NO": 999,
    "REV_AT_EPOCH": 3879,
    "BSTAR": 0,
    "MEAN_MOTION_DOT": -0.0000021,
    "MEAN_MOTION_DDOT": 0
   }
  },
  {
   "norad": 58584,
   "name": "ARKTIKA-M 2",
   "intl": "2023-198A",
   "group": "weather",
   "gcat": {
    "class": "C",
    "category": "MET",
    "owner": "ROSK",
    "state": "RU"
   },
   "omm": {
    "OBJECT_NAME": "ARKTIKA-M 2",
    "OBJECT_ID": "2023-198A",
    "EPOCH": "2026-06-17T18:13:15.259296",
    "MEAN_MOTION": 2.00612717,
    "ECCENTRICITY": 0.69023443,
    "INCLINATION": 63.2243,
    "RA_OF_ASC_NODE": 154.292,
    "ARG_OF_PERICENTER": 267.4286,
    "MEAN_ANOMALY": 18.7609,
    "EPHEMERIS_TYPE": 0,
    "CLASSIFICATION_TYPE": "U",
    "NORAD_CAT_ID": 58584,
    "ELEMENT_SET_NO": 999,
    "REV_AT_EPOCH": 1833,
    "BSTAR": 0,
    "MEAN_MOTION_DOT": 0.00000145,
    "MEAN_MOTION_DDOT": 0
   }
  },
  {
   "norad": 40298,
   "name": "ASNARO",
   "intl": "2014-070A",
   "group": "resource",
   "gcat": {
    "class": null,
    "category": "IMG",
    "owner": "JSS",
    "state": "J"
   },
   "omm": {
    "OBJECT_NAME": "ASNARO",
    "OBJECT_ID": "2014-070A",
    "EPOCH": "2026-06-19T20:37:28.983072",
    "MEAN_MOTION": 15.19464609,
    "ECCENTRICITY": 0.0005903,
    "INCLINATION": 97.3448,
    "RA_OF_ASC_NODE": 246.9011,
    "ARG_OF_PERICENTER": 156.3416,
    "MEAN_ANOMALY": 203.8091,
    "EPHEMERIS_TYPE": 0,
    "CLASSIFICATION_TYPE": "U",
    "NORAD_CAT_ID": 40298,
    "ELEMENT_SET_NO": 999,
    "REV_AT_EPOCH": 64441,
    "BSTAR": 0.00024621,
    "MEAN_MOTION_DOT": 0.00005157,
    "MEAN_MOTION_DDOT": 0
   }
  }
 ]
}
